start=new Date('2022-08-07T00:00:00.000Z').valueOf();
sats=[{"OBJECT_NAME":"STARLINK-3517","TIME_SYSTEM":"UTC","OBJECT_TYPE":"PAYLOAD","RA_OF_ASC_NODE":"83.4123","MEAN_MOTION":"15.08825965","COUNTRY_CODE":"US","TLE_LINE2":"2 51735  53.2185  83.4123 0001854  65.9011  19.7903 15.08825965 26802","DECAY_DATE":null,"TLE_LINE1":"1 51735U 22016X   22218.91667824 -.00010703  00000-0 -65563-3 0  9991","GP_ID":"209703584","APOAPSIS":"541.071","INCLINATION":"53.2185","MEAN_ANOMALY":"19.7903","CLASSIFICATION_TYPE":"U","SEMIMAJOR_AXIS":"6917.923","PERIAPSIS":"538.506","ECCENTRICITY":"0.00018540","ELEMENT_SET_NO":"999","LAUNCH_DATE":"2022-02-21","PERIOD":"95.438","FILE":"3530788","OBJECT_ID":"2022-016X","REV_AT_EPOCH":"2680","MEAN_ELEMENT_THEORY":"SGP4","REF_FRAME":"TEME","NORAD_CAT_ID":"51735","MEAN_MOTION_DDOT":"0.0000000000000","RCS_SIZE":"LARGE","BSTAR":"-0.00065563000000","CENTER_NAME":"EARTH","MEAN_MOTION_DOT":"-0.00010703","SITE":"AFETR","EPHEMERIS_TYPE":"0","ARG_OF_PERICENTER":"65.9011","EPOCH":"2022-08-06T22:00:00.999936"},{"REV_AT_EPOCH":"2681","OBJECT_ID":"2022-016Y","FILE":"3530789","ELEMENT_SET_NO":"999","LAUNCH_DATE":"2022-02-21","PERIOD":"95.438","ECCENTRICITY":"0.00018490","PERIAPSIS":"538.479","MEAN_MOTION_DOT":"-0.00006447","BSTAR":"-0.00038733000000","CENTER_NAME":"EARTH","RCS_SIZE":"LARGE","MEAN_MOTION_DDOT":"0.0000000000000","NORAD_CAT_ID":"51736","REF_FRAME":"TEME","MEAN_ELEMENT_THEORY":"SGP4","EPHEMERIS_TYPE":"0","SITE":"AFETR","EPOCH":"2022-08-06T22:00:00.999936","ARG_OF_PERICENTER":"62.1671","OBJECT_TYPE":"PAYLOAD","RA_OF_ASC_NODE":"83.4011","TIME_SYSTEM":"UTC","OBJECT_NAME":"STARLINK-3447","TLE_LINE2":"2 51736  53.2158  83.4011 0001849  62.1671 103.4604 15.08835947 26815","COUNTRY_CODE":"US","MEAN_MOTION":"15.08835947","INCLINATION":"53.2158","APOAPSIS":"541.037","GP_ID":"209703454","DECAY_DATE":null,"TLE_LINE1":"1 51736U 22016Y   22218.91667824 -.00006447  00000-0 -38733-3 0  9991","SEMIMAJOR_AXIS":"6917.893","CLASSIFICATION_TYPE":"U","MEAN_ANOMALY":"103.4604"},{"MEAN_ELEMENT_THEORY":"SGP4","REF_FRAME":"TEME","NORAD_CAT_ID":"51737","CENTER_NAME":"EARTH","BSTAR":"-0.00000528030000","MEAN_MOTION_DOT":"-0.00000372","RCS_SIZE":"LARGE","MEAN_MOTION_DDOT":"0.0000000000000","FILE":"3530813","PERIAPSIS":"538.403","ECCENTRICITY":"0.00019070","LAUNCH_DATE":"2022-02-21","ELEMENT_SET_NO":"999","PERIOD":"95.437","OBJECT_ID":"2022-016Z","REV_AT_EPOCH":"2567","ARG_OF_PERICENTER":"64.1151","EPOCH":"2022-08-06T21:32:02.425056","EPHEMERIS_TYPE":"0","SITE":"AFETR","COUNTRY_CODE":"US","MEAN_MOTION":"15.08847453","TLE_LINE2":"2 51737  53.2180  83.4899 0001907  64.1151 296.0038 15.08847453 25673","RA_OF_ASC_NODE":"83.4899","OBJECT_TYPE":"PAYLOAD","TIME_SYSTEM":"UTC","OBJECT_NAME":"STARLINK-3509","MEAN_ANOMALY":"296.0038","CLASSIFICATION_TYPE":"U","SEMIMAJOR_AXIS":"6917.858","TLE_LINE1":"1 51737U 22016Z   22218.89725029 -.00000372  00000-0 -52803-5 0  9998","DECAY_DATE":null,"APOAPSIS":"541.042","INCLINATION":"53.2180","GP_ID":"209727379"},{"EPOCH":"2022-08-06T21:05:32.862048","ARG_OF_PERICENTER":"64.0528","SITE":"AFETR","EPHEMERIS_TYPE":"0","NORAD_CAT_ID":"51738","REF_FRAME":"TEME","MEAN_ELEMENT_THEORY":"SGP4","MEAN_MOTION_DDOT":"0.0000000000000","RCS_SIZE":"LARGE","MEAN_MOTION_DOT":"0.00001152","BSTAR":"0.00009045000000","CENTER_NAME":"EARTH","PERIOD":"95.438","LAUNCH_DATE":"2022-02-21","ELEMENT_SET_NO":"999","PERIAPSIS":"538.344","ECCENTRICITY":"0.00020240","FILE":"3530788","REV_AT_EPOCH":"2678","OBJECT_ID":"2022-016AA","MEAN_ANOMALY":"296.0673","SEMIMAJOR_AXIS":"6917.879","CLASSIFICATION_TYPE":"U","DECAY_DATE":null,"TLE_LINE1":"1 51738U 22016AA  22218.87885257  .00001152  00000-0  90450-4 0  9991","GP_ID":"209703585","INCLINATION":"53.2182","APOAPSIS":"541.145","MEAN_MOTION":"15.08840321","COUNTRY_CODE":"US","TLE_LINE2":"2 51738  53.2182  83.5730 0002024  64.0528 296.0673 15.08840321 26784","OBJECT_NAME":"STARLINK-3515","OBJECT_TYPE":"PAYLOAD","TIME_SYSTEM":"UTC","RA_OF_ASC_NODE":"83.5730"},{"ARG_OF_PERICENTER":"65.2403","EPOCH":"2022-08-06T22:00:00.999936","EPHEMERIS_TYPE":"0","SITE":"AFETR","MEAN_ELEMENT_THEORY":"SGP4","REF_FRAME":"TEME","NORAD_CAT_ID":"51739","BSTAR":"-0.00044422000000","CENTER_NAME":"EARTH","MEAN_MOTION_DOT":"-0.00007350","MEAN_MOTION_DDOT":"0.0000000000000","RCS_SIZE":"LARGE","FILE":"3530788","ECCENTRICITY":"0.00019650","PERIAPSIS":"538.409","PERIOD":"95.438","LAUNCH_DATE":"2022-02-21","ELEMENT_SET_NO":"999","OBJECT_ID":"2022-016AB","REV_AT_EPOCH":"2680","MEAN_ANOMALY":"80.4505","CLASSIFICATION_TYPE":"U","SEMIMAJOR_AXIS":"6917.903","TLE_LINE1":"1 51739U 22016AB  22218.91667824 -.00007350  00000-0 -44422-3 0  9990","DECAY_DATE":null,"APOAPSIS":"541.127","INCLINATION":"53.2174","GP_ID":"209703588","COUNTRY_CODE":"US","MEAN_MOTION":"15.08832570","TLE_LINE2":"2 51739  53.2174  83.4036 0001965  65.2403  80.4505 15.08832570 26801","TIME_SYSTEM":"UTC","OBJECT_TYPE":"PAYLOAD","RA_OF_ASC_NODE":"83.4036","OBJECT_NAME":"STARLINK-3516"},{"EPOCH":"2022-08-06T20:54:57.450528","ARG_OF_PERICENTER":"69.5542","SITE":"AFETR","EPHEMERIS_TYPE":"0","NORAD_CAT_ID":"51740","MEAN_ELEMENT_THEORY":"SGP4","REF_FRAME":"TEME","RCS_SIZE":"MEDIUM","MEAN_MOTION_DDOT":"0.0000000000000","MEAN_MOTION_DOT":"-0.00000073","CENTER_NAME":"EARTH","BSTAR":"0.00001349200000","ELEMENT_SET_NO":"999","LAUNCH_DATE":"2022-02-21","PERIOD":"95.438","PERIAPSIS":"538.648","ECCENTRICITY":"0.00016250","FILE":"3530787","REV_AT_EPOCH":"2673","OBJECT_ID":"2022-016AC","MEAN_ANOMALY":"290.5625","SEMIMAJOR_AXIS":"6917.907","CLASSIFICATION_TYPE":"U","DECAY_DATE":null,"TLE_LINE1":"1 51740U 22016AC  22218.87149827 -.00000073  00000-0  13492-4 0  9993","GP_ID":"209703422","INCLINATION":"53.2178","APOAPSIS":"540.896","MEAN_MOTION":"15.08831260","COUNTRY_CODE":"US","TLE_LINE2":"2 51740  53.2178  83.6038 0001625  69.5542 290.5625 15.08831260 26739","OBJECT_NAME":"STARLINK-3500","OBJECT_TYPE":"PAYLOAD","RA_OF_ASC_NODE":"83.6038","TIME_SYSTEM":"UTC"},{"GP_ID":"209703427","APOAPSIS":"541.022","INCLINATION":"53.2165","TLE_LINE1":"1 51741U 22016AD  22218.91667824 -.00004764  00000-0 -28143-3 0  9991","DECAY_DATE":null,"CLASSIFICATION_TYPE":"U","SEMIMAJOR_AXIS":"6917.900","MEAN_ANOMALY":"118.4344","OBJECT_NAME":"STARLINK-3520","TIME_SYSTEM":"UTC","OBJECT_TYPE":"PAYLOAD","RA_OF_ASC_NODE":"83.4024","TLE_LINE2":"2 51741  53.2165  83.4024 0001816  67.2584 118.4344 15.08833441 26797","MEAN_MOTION":"15.08833441","COUNTRY_CODE":"US","SITE":"AFETR","EPHEMERIS_TYPE":"0","ARG_OF_PERICENTER":"67.2584","EPOCH":"2022-08-06T22:00:00.999936","OBJECT_ID":"2022-016AD","REV_AT_EPOCH":"2679","PERIAPSIS":"538.509","ECCENTRICITY":"0.00018160","LAUNCH_DATE":"2022-02-21","PERIOD":"95.438","ELEMENT_SET_NO":"999","FILE":"3530787","RCS_SIZE":"LARGE","MEAN_MOTION_DDOT":"0.0000000000000","BSTAR":"-0.00028143000000","CENTER_NAME":"EARTH","MEAN_MOTION_DOT":"-0.00004764","MEAN_ELEMENT_THEORY":"SGP4","REF_FRAME":"TEME","NORAD_CAT_ID":"51741"},{"APOAPSIS":"540.980","INCLINATION":"53.2156","GP_ID":"209728131","TLE_LINE1":"1 51742U 22016AE  22218.91667824 -.00006057  00000-0 -36275-3 0  9994","DECAY_DATE":null,"CLASSIFICATION_TYPE":"U","SEMIMAJOR_AXIS":"6917.867","MEAN_ANOMALY":"202.4859","RA_OF_ASC_NODE":"83.3990","OBJECT_TYPE":"PAYLOAD","TIME_SYSTEM":"UTC","OBJECT_NAME":"STARLINK-3521","TLE_LINE2":"2 51742  53.2156  83.3990 0001805  63.2063 202.4859 15.08844448  1309","COUNTRY_CODE":"US","MEAN_MOTION":"15.08844448","EPHEMERIS_TYPE":"0","SITE":"AFETR","ARG_OF_PERICENTER":"63.2063","EPOCH":"2022-08-06T22:00:00.999936","OBJECT_ID":"2022-016AE","REV_AT_EPOCH":"130","FILE":"3530813","ECCENTRICITY":"0.00018050","PERIAPSIS":"538.483","PERIOD":"95.437","LAUNCH_DATE":"2022-02-21","ELEMENT_SET_NO":"999","CENTER_NAME":"EARTH","BSTAR":"-0.00036275000000","MEAN_MOTION_DOT":"-0.00006057","RCS_SIZE":"LARGE","MEAN_MOTION_DDOT":"0.0000000000000","REF_FRAME":"TEME","MEAN_ELEMENT_THEORY":"SGP4","NORAD_CAT_ID":"51742"},{"GP_ID":"209726879","APOAPSIS":"541.165","INCLINATION":"53.2161","DECAY_DATE":null,"TLE_LINE1":"1 51743U 22016AF  22218.91667824 -.00002460  00000-0 -13653-3 0  9994","CLASSIFICATION_TYPE":"U","SEMIMAJOR_AXIS":"6917.895","MEAN_ANOMALY":"57.9250","OBJECT_NAME":"STARLINK-3512","TIME_SYSTEM":"UTC","OBJECT_TYPE":"PAYLOAD","RA_OF_ASC_NODE":"73.4090","TLE_LINE2":"2 51743  53.2161  73.4090 0002031  62.7189  57.9250 15.08835294  1309","MEAN_MOTION":"15.08835294","COUNTRY_CODE":"US","SITE":"AFETR","EPHEMERIS_TYPE":"0","ARG_OF_PERICENTER":"62.7189","EPOCH":"2022-08-06T22:00:00.999936","OBJECT_ID":"2022-016AF","REV_AT_EPOCH":"130","PERIAPSIS":"538.355","ECCENTRICITY":"0.00020310","LAUNCH_DATE":"2022-02-21","PERIOD":"95.438","ELEMENT_SET_NO":"999","FILE":"3530813","RCS_SIZE":"LARGE","MEAN_MOTION_DDOT":"0.0000000000000","CENTER_NAME":"EARTH","BSTAR":"-0.00013653000000","MEAN_MOTION_DOT":"-0.00002460","MEAN_ELEMENT_THEORY":"SGP4","REF_FRAME":"TEME","NORAD_CAT_ID":"51743"},{"TLE_LINE1":"1 51744U 22016AG  22218.91667824 -.00006060  00000-0 -36304-3 0  9993","DECAY_DATE":null,"GP_ID":"209727129","INCLINATION":"53.2179","APOAPSIS":"541.154","MEAN_ANOMALY":"242.6282","SEMIMAJOR_AXIS":"6917.916","CLASSIFICATION_TYPE":"U","OBJECT_NAME":"STARLINK-3452","OBJECT_TYPE":"PAYLOAD","RA_OF_ASC_NODE":"83.3998","TIME_SYSTEM":"UTC","MEAN_MOTION":"15.08828305","COUNTRY_CODE":"US","TLE_LINE2":"2 51744  53.2179  83.3998 0001984  57.8700 242.6282 15.08828305  1309","SITE":"AFETR","EPHEMERIS_TYPE":"0","EPOCH":"2022-08-06T22:00:00.999936","ARG_OF_PERICENTER":"57.8700","LAUNCH_DATE":"2022-02-21","ELEMENT_SET_NO":"999","PERIOD":"95.438","PERIAPSIS":"538.409","ECCENTRICITY":"0.00019840","FILE":"3530813","REV_AT_EPOCH":"130","OBJECT_ID":"2022-016AG","NORAD_CAT_ID":"51744","MEAN_ELEMENT_THEORY":"SGP4","REF_FRAME":"TEME","RCS_SIZE":"LARGE","MEAN_MOTION_DDOT":"0.0000000000000","MEAN_MOTION_DOT":"-0.00006060","BSTAR":"-0.00036304000000","CENTER_NAME":"EARTH"}];
